GLOBALSTAR M094         
1 39074U 13005C   25311.81660523 -.00000132  00000+0 -15990-3 0  9999
2 39074  51.9939 104.8052 0000811 117.5455 242.5494 12.62264880590518
GLOBALSTAR M096         
1 39075U 13005D   25312.30486286 -.00000098  00000+0  31721-4 0  9998
2 39075  52.0046 151.9478 0000927 102.6474 257.4497 12.62268750589492
GLOBALSTAR M078         
1 39076U 13005E   25311.96227036  .00000051  00000+0  86480-3 0  9995
2 39076  51.9873 237.3092 0001307 104.3999 255.7013 12.62272838588074
GLOBALSTAR M095         
1 39077U 13005F   25312.06749858 -.00000030  00000+0  40975-3 0  9996
2 39077  52.0073 234.2763 0000736 103.5905 256.5044 12.62265935587941
GLOBALSTAR M087         
1 52888U 22064A   25312.47628769 -.00000079  00000+0  13987-3 0  9994
2 52888  52.0022  14.3941 0000485 140.3769 219.7133 12.62260203163261
